              M50 Cartesian                         J2K Cartesian  
    -----------------------------------       --------------------------------
     X    =       13625663.77                 X    =         4184077.34
     Y    =       -1557515.51  feet           Y    =         -428115.24  meter
     Z    =      -17543781.84                 Z    =        -5327094.67
     XDOT =       2650.137302                 XDOT =         722.778037
     YDOT =      24982.281814  feet/sec       YDOT =        7623.157250  meter/sec
     ZDOT =       -151.674999                 ZDOT =         -42.513688
 
              TDR Cartesian                         TDR Cartesian  
    -----------------------------------       --------------------------------
     X    =        9091741.10                 X    =         2771162.69
     Y    =      -10416740.76  feet           Y    =        -3175022.58  meter
     Z    =      -17455675.42                 Z    =        -5320489.87
     XDOT =      18046.881560                 XDOT =        5500.689500
     YDOT =      15994.094120  feet/sec       YDOT =        4874.999888  meter/sec
     ZDOT =       -136.878048                 ZDOT =         -41.720429
  
  
    The mean element set is posted at the UTC for which position is
    just north of the next ascending node relative to the above
    vector time
 
 
    TWO LINE MEAN ELEMENT SET
  
    ISS
    1 25544U 98067A   16091.61026130  .00016717  00000-0  10270-3 0  9047
    2 25544  51.6397  84.9574 0002566  11.6824 348.4387 15.54293909 32910
  
  
    Satellite: ISS
    Catalog Number: 25544
    Epoch time:      16091.61026130   =   yrday.fracday
    Element set:     904
    Inclination:       51.6397  deg
    RA of node:        84.9574  deg
    Eccentricity:     .0002566     
    Arg of perigee:    11.6824  deg
    Mean anomaly:     348.4387  deg
    Mean motion:   15.54293909  rev/day
    Decay rate:    1.67170E-04  rev/day^2
    Epoch rev:            3291
    Checksum:              321
 
 
    Coasting Arc #6 (Orbit 3292)
    ---------------------------------------
 
    Vector Time (GMT): 2016/091/16:23:58.000
    Vector Time (MET): N/A
    Weight (LBS)     : 904351.6
 
              M50 Cartesian                         M50 Keplerian  
    -----------------------------------       --------------------------------
     X    =       -2651324.05                 A    =         6781967.44  meter
     Y    =        4756871.17  meter          E    =           .0011160
     Z    =        4032147.02                 I    =           52.00502
     XDOT =      -3702.493283                 Wp   =           88.26767
     YDOT =      -5429.112752  meter/sec      RA   =           83.79827  deg
     ZDOT =       3961.266915                 TA   =          320.76494
                                              MA   =          320.84577
                                              Ha   =            221.203  n.mi
                                              Hp   =            214.148
 
              M50 Cartesian                         J2K Cartesian  
    -----------------------------------       --------------------------------
     X    =       -8698569.72                 X    =        -2723905.97
     Y    =       15606532.71  feet           Y    =         4726816.81  meter
     Z    =       13228828.81                 Z    =         4019090.84
     XDOT =     -12147.287674                 XDOT =       -3660.750571
     YDOT =     -17812.049711  feet/sec       YDOT =       -5470.282761  meter/sec
     ZDOT =      12996.282530                 ZDOT =        3943.382956
 
              TDR Cartesian                         TDR Cartesian  
    -----------------------------------       --------------------------------
     X    =       12718257.47                 X    =         3876524.88
     Y    =       12609345.69  feet           Y    =         3843328.57  meter
     Z    =       13171226.91                 Z    =         4014589.96
     XDOT =     -19497.897599                 XDOT =       -5942.959188
     YDOT =       6139.787621  feet/sec       YDOT =        1871.407267  meter/sec
     ZDOT =      12919.515191                 ZDOT =        3937.868230
  
  
    The mean element set is posted at the UTC for which position is
    just north of the next ascending node relative to the above
    vector time
 
 
    TWO LINE MEAN ELEMENT SET
  
    ISS
    1 25544U 98067A   16091.73885115  .00016717  00000-0  10270-3 0  9057
    2 25544  51.6411  84.3172 0002541  12.6633 347.4583 15.54306441 32932
  
  
    Satellite: ISS
    Catalog Number: 25544
    Epoch time:      16091.73885115   =   yrday.fracday
    Element set:     905
    Inclination:       51.6411  deg
    RA of node:        84.3172  deg
    Eccentricity:     .0002541     
    Arg of perigee:    12.6633  deg
    Mean anomaly:     347.4583  deg
    Mean motion:   15.54306441  rev/day
    Decay rate:    1.67170E-04  rev/day^2
    Epoch rev:            3293
    Checksum:              293
 
 
    Coasting Arc #7 (Orbit 3307)
    ---------------------------------------
 
    Vector Time (GMT): 2016/092/16:23:58.000
    Vector Time (MET): N/A
    Weight (LBS)     : 904351.6
 
              M50 Cartesian                         M50 Keplerian  
    -----------------------------------       --------------------------------
     X    =        3323074.51                 A    =         6778393.59  meter
     Y    =       -3216391.15  meter          E    =           .0013877
     Z    =       -4968495.84                 I    =           51.98977
     XDOT =       3089.808677                 Wp   =           64.50177
     YDOT =       6641.753816  meter/sec      RA   =           78.82917  deg
     ZDOT =      -2232.074056                 TA   =          183.78099
                                              MA   =          183.79149
                                              Ha   =            221.127  n.mi
                                              Hp   =            214.154
 
              M50 Cartesian                         J2K Cartesian  
    -----------------------------------       --------------------------------
     X    =       10902475.41                 X    =         3382928.81
     Y    =      -10552464.40  feet           Y    =        -3178896.10  meter
     Z    =      -16300839.37                 Z    =        -4952207.53
     XDOT =      10137.167576                 XDOT =        3026.151738
     YDOT =      21790.530893  feet/sec       YDOT =        6675.949985  meter/sec
     ZDOT =      -7323.077612                 ZDOT =       -2217.219760
 
              TDR Cartesian                         TDR Cartesian  
    -----------------------------------       --------------------------------
     X    =       -7485280.94                 X    =        -2281513.63
     Y    =      -13285750.58  feet           Y    =        -4049496.78  meter
     Z    =      -16229455.94                 Z    =        -4946738.17
     XDOT =      22669.074435                 XDOT =        6909.533888
     YDOT =      -3899.821876  feet/sec       YDOT =       -1188.665708  meter/sec
     ZDOT =      -7259.704885                 ZDOT =       -2212.758049
  
  
    The mean element set is posted at the UTC for which position is
    just north of the next ascending node relative to the above
    vector time
 
 
    TWO LINE MEAN ELEMENT SET
  
    ISS
    1 25544U 98067A   16092.70326991  .00016717  00000-0  10270-3 0  9068
    2 25544  51.6420  79.5084 0002611  15.4957 344.6275 15.54329990 33086
  
  
    Satellite: ISS
    Catalog Number: 25544
    Epoch time:      16092.70326991   =   yrday.fracday
    Element set:     906
    Inclination:       51.6420  deg
    RA of node:        79.5084  deg
    Eccentricity:     .0002611     
    Arg of perigee:    15.4957  deg
    Mean anomaly:     344.6275  deg
    Mean motion:   15.54329990  rev/day
    Decay rate:    1.67170E-04  rev/day^2
    Epoch rev:            3308
    Checksum:              318
 
 
    Coasting Arc #8 (Orbit 3323)
    ---------------------------------------
 
    Vector Time (GMT): 2016/093/16:23:58.000
    Vector Time (MET): N/A
    Weight (LBS)     : 904351.6
 
              M50 Cartesian                         M50 Keplerian  
    -----------------------------------       --------------------------------
     X    =       -3923484.15                 A    =         6776680.32  meter
     Y    =        1439527.51  meter          E    =           .0003712
     Z    =        5331780.49                 I    =           51.97729
     XDOT =      -2327.845533                 Wp   =           57.61727
     YDOT =      -7305.491811  meter/sec      RA   =           73.85242  deg
     ZDOT =        261.227708                 TA   =           29.91603
                                              MA   =           29.89482
                                              Ha   =            221.218  n.mi
                                              Hp   =            213.995
 
              M50 Cartesian                         J2K Cartesian  
    -----------------------------------       --------------------------------
     X    =      -12872323.32                 X    =        -3965189.14
     Y    =        4722859.28  feet           Y    =         1395419.84  meter
     Z    =       17492718.15                 Z    =         5312619.79
     XDOT =      -7637.288495                 XDOT =       -2247.249624
     YDOT =     -23968.148985  feet/sec       YDOT =       -7331.072663  meter/sec
     ZDOT =        857.046285                 ZDOT =         250.116126
 
